SENTINEL-2B             
1 42063U 17013A   20207.48026759 -.00000217  00000-0 -66132-4 0  9993
2 42063  98.5696 281.1757 0001397  94.5574 265.5794 14.30813992176816
